{"type": "FeatureCollection", "features": [ {"type": "Feature", "properties": {"norad_id": 60989, "name": "SENTINEL-2C", "group": "resource", "lat": 47.09348609925003, "lon": 57.891247319166865, "alt_km": 784.19768402723, "timestamp": "2025-12-20T20:38:44.102063+00:00", "meta": {"OBJECT_NAME": "SENTINEL-2C", "OBJECT_ID": "2024-157A", "EPOCH": "2025-12-20T03:38:23.300448", "MEAN_MOTION": 14.30820273, "ECCENTRICITY": 0.00012037, "INCLINATION": 98.5676, "RA_OF_ASC_NODE": 66.5273, "ARG_OF_PERICENTER": 95.83, "MEAN_ANOMALY": 264.302, "EPHEMERIS_TYPE": 0, "CLASSIFICATION_TYPE": "U", "NORAD_CAT_ID": 60989, "ELEMENT_SET_NO": 999, "REV_AT_EPOCH": 6738, "BSTAR": 5.6238603e-05, "MEAN_MOTION_DOT": 1.04e-06, "MEAN_MOTION_DDOT": 0}, "tle": {"line1": "1 60989U 24157A   25354.15165857  .00000104  00000+0  56239-4 0  9991", "line2": "2 60989  98.5676  66.5273 0001203  95.8300 264.3020 14.30820273 67386"}}, "geometry": {"type": "Point", "coordinates": [57.891247319166865, 47.09348609925003]}}, {"type": "Feature", "properties": {"norad_id": 61735, "name": "IONOSFERA-M 1", "group": "resource", "lat": 74.9869929830907, "lon": -170.3551217626562, "alt_km": 808.8555790415094, "timestamp": "2025-12-20T20:38:44.102073+00:00", "meta": {"OBJECT_NAME": "IONOSFERA-M 1", "OBJECT_ID": "2024-199A", "EPOCH": "2025-12-20T15:13:04.564704", "MEAN_MOTION": 14.2271563, "ECCENTRICITY": 5.84e-05, "INCLINATION": 98.7399, "RA_OF_ASC_NODE": 224.4215, "ARG_OF_PERICENTER": 11.9613, "MEAN_ANOMALY": 348.1579, "EPHEMERIS_TYPE": 0, "CLASSIFICATION_TYPE": "U", "NORAD_CAT_ID": 61735, "ELEMENT_SET_NO": 999, "REV_AT_EPOCH": 10231, "BSTAR": 3.796992e-05, "MEAN_MOTION_DOT": 4.1e-07, "MEAN_MOTION_DDOT": 0}, "tle": {"line1": "1 61735U 24199A   25354.63408061  .00000041  00000+0  37970-4 0  9998", "line2": "2 61735  98.7399 224.4215 0000584  11.9613 348.1579 14.22715630102312"}}, "geometry": {"type": "Point", "coordinates": [-170.3551217626562, 74.9869929830907]}}, {"type": "Feature", "properties": {"norad_id": 61736, "name": "IONOSFERA-M 2", "group": "resource", "lat": -77.13031380723575, "lon": 2.23678476094986, "alt_km": 824.7143515384068, "timestamp": "2025-12-20T20:38:44.102083+00:00", "meta": {"OBJECT_NAME": "IONOSFERA-M 2", "OBJECT_ID": "2024-199B", "EPOCH": "2025-12-20T14:21:40.725792", "MEAN_MOTION": 14.22717806, "ECCENTRICITY": 0.00018095, "INCLINATION": 98.7397, "RA_OF_ASC_NODE": 224.2985, "ARG_OF_PERICENTER": 100.497, "MEAN_ANOMALY": 259.6411, "EPHEMERIS_TYPE": 0, "CLASSIFICATION_TYPE": "U", "NORAD_CAT_ID": 61736, "ELEMENT_SET_NO": 999, "REV_AT_EPOCH": 10543, "BSTAR": 3.9158909e-05, "MEAN_MOTION_DOT": 4.4e-07, "MEAN_MOTION_DDOT": 0}, "tle": {"line1": "1 61736U 24199B   25354.59838803  .00000044  00000+0  39159-4 0  9999", "line2": "2 61736  98.7397 224.2985 0001809 100.4970 259.6411 14.22717806105438"}}, "geometry": {"type": "Point", "coordinates": [2.23678476094986, -77.13031380723575]}}, {"type": "Feature", "properties": {"norad_id": 63772, "name": "BIOMASS", "group": "resource", "lat": -38.883801443623966, "lon": -173.67834519595237, "alt_km": 675.7880634505227, "timestamp": "2025-12-20T20:38:44.102093+00:00", "meta": {"OBJECT_NAME": "BIOMASS", "OBJECT_ID": "2025-090A", "EPOCH": "2025-12-20T11:00:22.690080", "MEAN_MOTION": 14.67537273, "ECCENTRICITY": 0.00011035, "INCLINATION": 98.07, "RA_OF_ASC_NODE": 179.356, "ARG_OF_PERICENTER": 81.418, "MEAN_ANOMALY": 278.715, "EPHEMERIS_TYPE": 0, "CLASSIFICATION_TYPE": "U", "NORAD_CAT_ID": 63772, "ELEMENT_SET_NO": 999, "REV_AT_EPOCH": 3447, "BSTAR": 0.0001671094, "MEAN_MOTION_DOT": 9e-06, "MEAN_MOTION_DDOT": 0}, "tle": {"line1": "1 63772U 25090A   25354.45859595  .00000900  00000+0  16711-3 0  9997", "line2": "2 63772  98.0700 179.3560 0001103  81.4180 278.7150 14.67537273 34472"}}, "geometry": {"type": "Point", "coordinates": [-173.67834519595237, -38.883801443623966]}}, {"type": "Feature", "properties": {"norad_id": 64694, "name": "GOSAT-GW (IBUKI GW)", "group": "resource", "lat": 8.762360153040927, "lon": 111.47503627565959, "alt_km": 670.5981833716551, "timestamp": "2025-12-20T20:38:44.102103+00:00", "meta": {"OBJECT_NAME": "GOSAT-GW (IBUKI GW)", "OBJECT_ID": "2025-141A", "EPOCH": "2025-12-20T14:57:35.439840", "MEAN_MOTION": 14.67565628, "ECCENTRICITY": 0.0001465, "INCLINATION": 98.0435, "RA_OF_ASC_NODE": 289.9935, "ARG_OF_PERICENTER": 83.9607, "MEAN_ANOMALY": 276.1765, "EPHEMERIS_TYPE": 0, "CLASSIFICATION_TYPE": "U", "NORAD_CAT_ID": 64694, "ELEMENT_SET_NO": 999, "REV_AT_EPOCH": 2565, "BSTAR": 9.7472999e-05, "MEAN_MOTION_DOT": 5.05e-06, "MEAN_MOTION_DDOT": 0}, "tle": {"line1": "1 64694U 25141A   25354.62332685  .00000505  00000+0  97473-4 0  9999", "line2": "2 64694  98.0435 289.9935 0001465  83.9607 276.1765 14.67565628 25656"}}, "geometry": {"type": "Point", "coordinates": [111.47503627565959, 8.762360153040927]}}, {"type": "Feature", "properties": {"norad_id": 64876, "name": "IONOSFERA-M 3", "group": "resource", "lat": -81.03382859442546, "lon": 63.40033596044976, "alt_km": 828.9110291861198, "timestamp": "2025-12-20T20:38:44.102113+00:00", "meta": {"OBJECT_NAME": "IONOSFERA-M 3", "OBJECT_ID": "2025-155A", "EPOCH": "2025-12-20T14:19:23.443104", "MEAN_MOTION": 14.21442763, "ECCENTRICITY": 0.00020159, "INCLINATION": 98.5793, "RA_OF_ASC_NODE": 316.2408, "ARG_OF_PERICENTER": 47.454, "MEAN_ANOMALY": 312.6808, "EPHEMERIS_TYPE": 0, "CLASSIFICATION_TYPE": "U", "NORAD_CAT_ID": 64876, "ELEMENT_SET_NO": 999, "REV_AT_EPOCH": 2103, "BSTAR": 3.4804939e-05, "MEAN_MOTION_DOT": 3.3e-07, "MEAN_MOTION_DDOT": 0}, "tle": {"line1": "1 64876U 25155A   25354.59679911  .00000033  00000+0  34805-4 0  9994", "line2": "2 64876  98.5793 316.2408 0002015  47.4540 312.6808 14.21442763 21038"}}, "geometry": {"type": "Point", "coordinates": [63.40033596044976, -81.03382859442546]}}, {"type": "Feature", "properties": {"norad_id": 64877, "name": "IONOSFERA-M 4", "group": "resource", "lat": 81.21072543640247, "lon": -121.09961248122387, "alt_km": 812.1651203621477, "timestamp": "2025-12-20T20:38:44.102124+00:00", "meta": {"OBJECT_NAME": "IONOSFERA-M 4", "OBJECT_ID": "2025-155B", "EPOCH": "2025-12-20T15:09:52.629696", "MEAN_MOTION": 14.21443913, "ECCENTRICITY": 0.00014139, "INCLINATION": 98.5792, "RA_OF_ASC_NODE": 316.1943, "ARG_OF_PERICENTER": 55.6941, "MEAN_ANOMALY": 304.437, "EPHEMERIS_TYPE": 0, "CLASSIFICATION_TYPE": "U", "NORAD_CAT_ID": 64877, "ELEMENT_SET_NO": 999, "REV_AT_EPOCH": 2103, "BSTAR": 3.5588215e-05, "MEAN_MOTION_DOT": 3.5e-07, "MEAN_MOTION_DDOT": 0}, "tle": {"line1": "1 64877U 25155B   25354.63185914  .00000035  00000+0  35588-4 0  9996", "line2": "2 64877  98.5792 316.1943 0001413  55.6941 304.4370 14.21443913 21039"}}, "geometry": {"type": "Point", "coordinates": [-121.09961248122387, 81.21072543640247]}}, {"type": "Feature", "properties": {"norad_id": 64899, "name": "MICROCARB", "group": "resource", "lat": -77.1019866658888, "lon": 107.97495775824513, "alt_km": 673.360941370308, "timestamp": "2025-12-20T20:38:44.102134+00:00", "meta": {"OBJECT_NAME": "MICROCARB", "OBJECT_ID": "2025-156A", "EPOCH": "2025-12-20T04:41:43.963008", "MEAN_MOTION": 14.72068313, "ECCENTRICITY": 0.00174928, "INCLINATION": 98.0018, "RA_OF_ASC_NODE": 69.4214, "ARG_OF_PERICENTER": 122.322, "MEAN_ANOMALY": 237.9684, "EPHEMERIS_TYPE": 0, "CLASSIFICATION_TYPE": "U", "NORAD_CAT_ID": 64899, "ELEMENT_SET_NO": 999, "REV_AT_EPOCH": 2163, "BSTAR": 8.8540161e-05, "MEAN_MOTION_DOT": 5.08e-06, "MEAN_MOTION_DDOT": 0}, "tle": {"line1": "1 64899U 25156A   25354.19564772  .00000508  00000+0  88540-4 0  9996", "line2": "2 64899  98.0018  69.4214 0017492 122.3220 237.9684 14.72068313 21631"}}, "geometry": {"type": "Point", "coordinates": [107.97495775824513, -77.1019866658888]}}, {"type": "Feature", "properties": {"norad_id": 64900, "name": "CO3D 3", "group": "resource", "lat": -72.05402446095339, "lon": 94.88884196272674, "alt_km": 513.3607863211937, "timestamp": "2025-12-20T20:38:44.102144+00:00", "meta": {"OBJECT_NAME": "CO3D 3", "OBJECT_ID": "2025-156B", "EPOCH": "2025-12-20T13:04:13.247328", "MEAN_MOTION": 15.20203792, "ECCENTRICITY": 0.00013551, "INCLINATION": 97.4346, "RA_OF_ASC_NODE": 70.8003, "ARG_OF_PERICENTER": 79.7127, "MEAN_ANOMALY": 280.4261, "EPHEMERIS_TYPE": 0, "CLASSIFICATION_TYPE": "U", "NORAD_CAT_ID": 64900, "ELEMENT_SET_NO": 999, "REV_AT_EPOCH": 2239, "BSTAR": 0.000234437, "MEAN_MOTION_DOT": 5.011e-05, "MEAN_MOTION_DDOT": 0}, "tle": {"line1": "1 64900U 25156B   25354.54459777  .00005011  00000+0  23444-3 0  9991", "line2": "2 64900  97.4346  70.8003 0001355  79.7127 280.4261 15.20203792 22399"}}, "geometry": {"type": "Point", "coordinates": [94.88884196272674, -72.05402446095339]}}, {"type": "Feature", "properties": {"norad_id": 64901, "name": "CO3D 4", "group": "resource", "lat": -72.60304028208145, "lon": 95.7394551879643, "alt_km": 512.8077379542465, "timestamp": "2025-12-20T20:38:44.102154+00:00", "meta": {"OBJECT_NAME": "CO3D 4", "OBJECT_ID": "2025-156C", "EPOCH": "2025-12-19T14:57:26.055072", "MEAN_MOTION": 15.20230123, "ECCENTRICITY": 0.0001264, "INCLINATION": 97.434, "RA_OF_ASC_NODE": 69.8917, "ARG_OF_PERICENTER": 174.7354, "MEAN_ANOMALY": 185.3894, "EPHEMERIS_TYPE": 0, "CLASSIFICATION_TYPE": "U", "NORAD_CAT_ID": 64901, "ELEMENT_SET_NO": 999, "REV_AT_EPOCH": 2225, "BSTAR": 0.00021367, "MEAN_MOTION_DOT": 4.564e-05, "MEAN_MOTION_DDOT": 0}, "tle": {"line1": "1 64901U 25156C   25353.62321823  .00004564  00000+0  21367-3 0  9994", "line2": "2 64901  97.4340  69.8917 0001264 174.7354 185.3894 15.20230123 22251"}}, "geometry": {"type": "Point", "coordinates": [95.7394551879643, -72.60304028208145]}}]}